[{"OBJECT_NAME":"STARLINK-30161","OBJECT_ID":"2023-107V","EPOCH":"2026-03-08T03:18:12.420864","MEAN_MOTION":15.26741769,"ECCENTRICITY":0.00028074,"INCLINATION":43.0039,"RA_OF_ASC_NODE":344.5252,"ARG_OF_PERICENTER":264.6186,"MEAN_ANOMALY":95.4345,"EPHEMERIS_TYPE":0,"CLASSIFICATION_TYPE":"U","NORAD_CAT_ID":57476,"ELEMENT_SET_NO":999,"REV_AT_EPOCH":14491,"BSTAR":-2.4473232e-5,"MEAN_MOTION_DOT":-9.17e-6,"MEAN_MOTION_DDOT":0},{"OBJECT_NAME":"KSLV-II R\/B","OBJECT_ID":"2023-072H","EPOCH":"2026-03-09T20:13:26.441760","MEAN_MOTION":15.33109439,"ECCENTRICITY":0.00241884,"INCLINATION":97.4991,"RA_OF_ASC_NODE":274.152,"ARG_OF_PERICENTER":318.2938,"MEAN_ANOMALY":41.646,"EPHEMERIS_TYPE":0,"CLASSIFICATION_TYPE":"U","NORAD_CAT_ID":56750,"ELEMENT_SET_NO":999,"REV_AT_EPOCH":15516,"BSTAR":0.00028309532,"MEAN_MOTION_DOT":9.057e-5,"MEAN_MOTION_DDOT":0}]
